#aV2011  3 30  0  0   .00000000      96 DD+AD WGS84 FIT  NGA
## 1629 259200.00000000   900.00000000 55650  .0000000000000
+   32     1  2  3  4  5  6  7  8  9 10 11 12 13 14 15 16 17
+         18 19 20 21 22 23 24 25 26 27 28 29 30 31 32  0  0
+          0  0  0  0  0  0  0  0  0  0  0  0  0  0  0  0  0
+          0  0  0  0  0  0  0  0  0  0  0  0  0  0  0  0  0
+          0  0  0  0  0  0  0  0  0  0  0  0  0  0  0  0  0
++         0  0  0  0  0  0  0  0  0  0  0  0  0  0  0  0  0
++         0  0  0  0  0  0  0  0  0  0  0  0  0  0  0  0  0
++         0  0  0  0  0  0  0  0  0  0  0  0  0  0  0  0  0
++         0  0  0  0  0  0  0  0  0  0  0  0  0  0  0  0  0
++         0  0  0  0  0  0  0  0  0  0  0  0  0  0  0  0  0
%c cc cc ccc ccc cccc cccc cccc cccc ccccc ccccc ccccc ccccc
%c cc cc ccc ccc cccc cccc cccc cccc ccccc ccccc ccccc ccccc
%f  0.0000000  0.000000000  0.00000000000  0.000000000000000
%f  0.0000000  0.000000000  0.00000000000  0.000000000000000
%i    0    0    0    0      0      0      0      0         0
%i    0    0    0    0      0      0      0      0         0
/*      NGA, ST. LOUIS,MO.                                  
/*   EPHEMERIS COMPUTED FROM  3 DAYS OF DATA                
/* CCCCCCCCCCCCCCCCCCCCCCCCCCCCCCCCCCCCCCCCCCCCCCCCCCCCCCCCC
/* CCCCCCCCCCCCCCCCCCCCCCCCCCCCCCCCCCCCCCCCCCCCCCCCCCCCCCCCC
*  2011  3 30 21  0   .00000000                                                 
P  1   6157.202389 -25532.549674  -3495.740017   -219.195144                    
V  1   3919.635844  -3223.421618  31598.578423      -.026703                    
P  2  11741.315642  22489.823767   8690.233991    327.964328                    
V  2  -9364.108867  -6203.834121  28332.458605       .022220                    
P  3  -8997.681198 -13795.077892 -21283.454133    695.439524                    
V  3  24716.646426  -8623.677698  -4633.820579       .050426                    
P  4     47.789054  19611.550984  17544.292911     74.926862                    
V  4 -16732.222747 -15781.115037  17826.476565       .102942                    
P  5   4058.134479  21404.487000 -15140.232971   -137.160481                    
V  5  -8290.344373  17513.314157  22668.581726      -.058394                    
P  6  -3795.385139 -15214.710685 -21274.153214   -209.145595                    
V  6  26686.592400  -6618.487231    185.368334     -1.175558                    
P  7 -15671.782720   3781.408862 -21143.106381      6.881626                    
V  7 -17019.178166 -20671.506951   8717.782400       .010235                    
P  8  -8163.230474  12677.875174 -21764.284267      7.621894                    
V  8 -16913.735057 -21929.101786  -6951.738749       .000831                    
P  9  20603.452824  13909.095012   8816.118574     70.817912                    
V  9   6529.161022  10207.313196 -29531.377794       .022759                    
P 10  -7761.486772  25130.067794  -1897.019489    -70.262351                    
V 10  -4019.189600    852.892916  31624.497494      -.010012                    
P 11 -23690.195731 -11044.818647   5320.564297   -138.706387                    
V 11  -3274.773560  -7881.611391 -28847.820632      -.030713                    
P 12  13843.154964   5636.969039  21988.288704    -15.386597                    
V 12  -9374.668344  26173.544843   -640.848996       .028469                    
P 13 -25793.369864   5393.744773  -3681.834159    277.036163                    
V 13  -4650.958668  -1277.825057  31911.547108      -.014678                    
P 14  13983.920681 -13946.699440  17847.560236    140.873557                    
V 14  22314.639896  -1808.315934 -19193.331317       .024027                    
P 15  22064.502848   5399.386375 -13887.912428   -139.101753                    
V 15 -16729.026386   5962.717575 -24084.471618       .030434                    
P 16  -1540.376521 -22433.098990 -13864.913539   -161.557267                    
V 16   8204.022041 -15869.616325  25000.616446      -.027650                    
P 17 -14378.235552  14458.493161  17032.613115    184.186799                    
V 17 -21471.059680   1698.348730 -19942.060558       .001811                    
P 18  15766.276730 -17086.501963 -12191.088981    129.274371                    
V 18  -2320.723486  16345.621815 -25653.894005       .020247                    
P 19 -19084.908874  -9297.870006 -16168.691147   -125.465019                    
V 19  20089.254949  -3972.651564 -21086.550751      -.038343                    
P 20 -16041.684332   -644.234557  21003.394235     48.804786                    
V 20   7247.749382 -26150.113439   4763.877307       .001091                    
P 21  15660.601478  -5135.284411 -20529.515755   -134.055340                    
V 21  17064.016938  20906.250066   7027.630212      -.026396                    
P 22  10841.749658 -24029.279685  -2587.182668    150.967466                    
V 22   2389.239000   4608.890443 -30917.450641      -.007680                    
P 23 -25228.182025  -1479.711603   8712.011335    316.627839                    
V 23  10380.209196  -4157.827128  29009.649117      -.025211                    
P 24 -20507.176582 -11998.147227  12209.269448    377.608719                    
V 24  -7544.941142 -13569.746275 -25857.937170       .031147                    
P 25  16565.901072  -9967.497089  18190.050876      -.931502                    
V 25  -5723.065664  22459.459525  17522.174357      -.003841                    
P 26  10890.889730  12813.622995 -21251.785704   -159.191870                    
V 26 -25238.750633   3369.720824 -10812.357181      -.102587                    
P 27  20441.911692  16721.088586   4755.557109    250.833376                    
V 27   2258.961453   4955.679016 -31256.919552       .037914                    
P 28 -12738.743653  22325.861895  -5598.230969     28.358908                    
V 28    369.022469  -8243.002499 -31131.674872       .023398                    
P 29  26236.949469  -3976.202524    241.974200    196.234157                    
V 29    237.264954   2835.580737  31794.762366       .027779                    
P 30   2285.814796 -25562.533367  -7181.502019    333.196603                    
V 30   4975.317880  -7490.980807  29983.797136       .029536                    
P 31  -2446.785879 -20355.226950  16970.896958     59.998270                    
V 31  14929.977584  15120.301286  20742.987365       .050675                    
P 32 -11855.744772 -10800.362513  21510.805102   -225.472872                    
V 32  11070.315438 -24196.849296  -5726.828476      -.074861                    
EOF
